HULIANWANG DIGUI-112    
1 66922U 25285H   25352.31701486 -.00000154  00000+0 -17891-5 0  9996
2 66922  50.0090  94.4749 0006481 322.5841  37.4612 14.03660786  1692
HULIANWANG DIGUI-113    
1 66923U 25285J   25352.31598601  .00000138  00000+0  18209-3 0  9992
2 66923  50.0100  94.4708 0005231 315.5251  44.5233 14.04002400  1691
CZ-8A R/B               
1 66924U 25285K   25352.24984060 -.00000014  00000+0  53863-4 0  9993
2 66924  50.0073  92.6994 0119277 126.1691 235.0329 14.30503972  1713
STARLINK-35945          
1 66925U 25286A   25352.25003472 -.01309892  00000+0 -66315-2 0  9997
2 66925  53.1566  22.7557 0000679  93.4623 268.3035 15.83618123  2875
STARLINK-35942          
1 66926U 25286B   25352.25003472 -.01325059  00000+0 -67176-2 0  9997
2 66926  53.1565  22.7459 0000651  86.6508 279.7318 15.83623073  2872
STARLINK-35943          
1 66927U 25286C   25352.25003472 -.01332852  00000+0 -67595-2 0  9992
2 66927  53.1566  22.7418 0000775  82.5989 285.8773 15.83631694  2875
STARLINK-35944          
1 66928U 25286D   25352.25003472 -.01319196  00000+0 -66874-2 0  9998
2 66928  53.1565  22.7503 0000655  85.6812 278.5808 15.83611617  2877
STARLINK-36169          
1 66929U 25286E   25352.25003472 -.01332652  00000+0 -67588-2 0  9994
2 66929  53.1565  22.7368 0000762  77.2817 293.4356 15.83630400  2873
STARLINK-36206          
1 66930U 25286F   25352.25003472 -.01341271  00000+0 -68038-2 0  9994
2 66930  53.1564  22.7325 0000803  86.5561 286.2067 15.83645193  2876
STARLINK-36130          
1 66931U 25286G   25352.25003472 -.01347233  00000+0 -68383-2 0  9992
2 66931  53.1563  22.7278 0000715  78.5279 296.5225 15.83646638  2877
STARLINK-36177          
1 66932U 25286H   25352.25003472 -.01356277  00000+0 -68894-2 0  9998
2 66932  53.1560  22.7231 0000775  77.2232 300.0708 15.83650204  2876
STARLINK-36157          
1 66933U 25286J   25352.25003472 -.01364182  00000+0 -69337-2 0  9996
2 66933  53.1563  22.7185 0000704  85.9689 293.5342 15.83656486  2870
