CCSDS_OMM_VERS = 2.0
CREATION_DATE  = 
ORIGINATOR     = 

OBJECT_NAME    = HULIANWANG DIGUI-112
OBJECT_ID      = 2025-285H
CENTER_NAME    = EARTH
REF_FRAME      = TEME
TIME_SYSTEM    = UTC
MEAN_ELEMENT_THEORY = SGP/SGP4

EPOCH          = 2025-12-18T07:36:30.083904
MEAN_MOTION    = 14.03660786
ECCENTRICITY   = .00064812
INCLINATION    = 50.0090
RA_OF_ASC_NODE = 94.4749
ARG_OF_PERICENTER = 322.5841
MEAN_ANOMALY   = 37.4612

EPHEMERIS_TYPE = 0
CLASSIFICATION_TYPE = U
NORAD_CAT_ID   = 66922
ELEMENT_SET_NO = 999
REV_AT_EPOCH   = 169
BSTAR          = -.1789144E-5
MEAN_MOTION_DOT = -.154E-5
MEAN_MOTION_DDOT = 0

CCSDS_OMM_VERS = 2.0
CREATION_DATE  = 
ORIGINATOR     = 

OBJECT_NAME    = HULIANWANG DIGUI-113
OBJECT_ID      = 2025-285J
CENTER_NAME    = EARTH
REF_FRAME      = TEME
TIME_SYSTEM    = UTC
MEAN_ELEMENT_THEORY = SGP/SGP4

EPOCH          = 2025-12-18T07:35:01.191264
MEAN_MOTION    = 14.04002400
ECCENTRICITY   = .00052315
INCLINATION    = 50.0100
RA_OF_ASC_NODE = 94.4708
ARG_OF_PERICENTER = 315.5251
MEAN_ANOMALY   = 44.5233

EPHEMERIS_TYPE = 0
CLASSIFICATION_TYPE = U
NORAD_CAT_ID   = 66923
ELEMENT_SET_NO = 999
REV_AT_EPOCH   = 169
BSTAR          = .18208635E-3
MEAN_MOTION_DOT = .138E-5
MEAN_MOTION_DDOT = 0

CCSDS_OMM_VERS = 2.0
CREATION_DATE  = 
ORIGINATOR     = 

OBJECT_NAME    = CZ-8A R/B
OBJECT_ID      = 2025-285K
CENTER_NAME    = EARTH
REF_FRAME      = TEME
TIME_SYSTEM    = UTC
MEAN_ELEMENT_THEORY = SGP/SGP4

EPOCH          = 2025-12-18T05:59:46.227840
MEAN_MOTION    = 14.30503972
ECCENTRICITY   = .01192776
INCLINATION    = 50.0073
RA_OF_ASC_NODE = 92.6994
ARG_OF_PERICENTER = 126.1691
MEAN_ANOMALY   = 235.0329

EPHEMERIS_TYPE = 0
CLASSIFICATION_TYPE = U
NORAD_CAT_ID   = 66924
ELEMENT_SET_NO = 999
REV_AT_EPOCH   = 171
BSTAR          = .53862849E-4
MEAN_MOTION_DOT = -.14E-6
MEAN_MOTION_DDOT = 0

CCSDS_OMM_VERS = 2.0
CREATION_DATE  = 
ORIGINATOR     = 

OBJECT_NAME    = STARLINK-35945
OBJECT_ID      = 2025-286A
CENTER_NAME    = EARTH
REF_FRAME      = TEME
TIME_SYSTEM    = UTC
MEAN_ELEMENT_THEORY = SGP/SGP4

EPOCH          = 2025-12-18T06:00:02.999808
MEAN_MOTION    = 15.83618123
ECCENTRICITY   = .00006791
INCLINATION    = 53.1566
RA_OF_ASC_NODE = 22.7557
ARG_OF_PERICENTER = 93.4623
MEAN_ANOMALY   = 268.3035

EPHEMERIS_TYPE = 0
CLASSIFICATION_TYPE = U
NORAD_CAT_ID   = 66925
ELEMENT_SET_NO = 999
REV_AT_EPOCH   = 287
BSTAR          = -.66315268E-2
MEAN_MOTION_DOT = -.1309892E-1
MEAN_MOTION_DDOT = 0

CCSDS_OMM_VERS = 2.0
CREATION_DATE  = 
ORIGINATOR     = 

OBJECT_NAME    = STARLINK-35942
OBJECT_ID      = 2025-286B
CENTER_NAME    = EARTH
REF_FRAME      = TEME
TIME_SYSTEM    = UTC
MEAN_ELEMENT_THEORY = SGP/SGP4

EPOCH          = 2025-12-18T06:00:02.999808
MEAN_MOTION    = 15.83623073
ECCENTRICITY   = .00006517
INCLINATION    = 53.1565
RA_OF_ASC_NODE = 22.7459
ARG_OF_PERICENTER = 86.6508
MEAN_ANOMALY   = 279.7318

EPHEMERIS_TYPE = 0
CLASSIFICATION_TYPE = U
NORAD_CAT_ID   = 66926
ELEMENT_SET_NO = 999
REV_AT_EPOCH   = 287
BSTAR          = -.67176274E-2
MEAN_MOTION_DOT = -.1325059E-1
MEAN_MOTION_DDOT = 0

CCSDS_OMM_VERS = 2.0
CREATION_DATE  = 
ORIGINATOR     = 

OBJECT_NAME    = STARLINK-35943
OBJECT_ID      = 2025-286C
CENTER_NAME    = EARTH
REF_FRAME      = TEME
TIME_SYSTEM    = UTC
MEAN_ELEMENT_THEORY = SGP/SGP4

EPOCH          = 2025-12-18T06:00:02.999808
MEAN_MOTION    = 15.83631694
ECCENTRICITY   = .00007758
INCLINATION    = 53.1566
RA_OF_ASC_NODE = 22.7418
ARG_OF_PERICENTER = 82.5989
MEAN_ANOMALY   = 285.8773

EPHEMERIS_TYPE = 0
CLASSIFICATION_TYPE = U
NORAD_CAT_ID   = 66927
ELEMENT_SET_NO = 999
REV_AT_EPOCH   = 287
BSTAR          = -.67595025E-2
MEAN_MOTION_DOT = -.1332852E-1
MEAN_MOTION_DDOT = 0

CCSDS_OMM_VERS = 2.0
CREATION_DATE  = 
ORIGINATOR     = 

OBJECT_NAME    = STARLINK-35944
OBJECT_ID      = 2025-286D
CENTER_NAME    = EARTH
REF_FRAME      = TEME
TIME_SYSTEM    = UTC
MEAN_ELEMENT_THEORY = SGP/SGP4

EPOCH          = 2025-12-18T06:00:02.999808
MEAN_MOTION    = 15.83611617
ECCENTRICITY   = .00006555
INCLINATION    = 53.1565
RA_OF_ASC_NODE = 22.7503
ARG_OF_PERICENTER = 85.6812
MEAN_ANOMALY   = 278.5808

EPHEMERIS_TYPE = 0
CLASSIFICATION_TYPE = U
NORAD_CAT_ID   = 66928
ELEMENT_SET_NO = 999
REV_AT_EPOCH   = 287
BSTAR          = -.66874006E-2
MEAN_MOTION_DOT = -.1319196E-1
MEAN_MOTION_DDOT = 0

CCSDS_OMM_VERS = 2.0
CREATION_DATE  = 
ORIGINATOR     = 

OBJECT_NAME    = STARLINK-36169
OBJECT_ID      = 2025-286E
CENTER_NAME    = EARTH
REF_FRAME      = TEME
TIME_SYSTEM    = UTC
MEAN_ELEMENT_THEORY = SGP/SGP4

EPOCH          = 2025-12-18T06:00:02.999808
MEAN_MOTION    = 15.83630400
ECCENTRICITY   = .00007627
INCLINATION    = 53.1565
RA_OF_ASC_NODE = 22.7368
ARG_OF_PERICENTER = 77.2817
MEAN_ANOMALY   = 293.4356

EPHEMERIS_TYPE = 0
CLASSIFICATION_TYPE = U
NORAD_CAT_ID   = 66929
ELEMENT_SET_NO = 999
REV_AT_EPOCH   = 287
BSTAR          = -.67588109E-2
MEAN_MOTION_DOT = -.1332652E-1
MEAN_MOTION_DDOT = 0

CCSDS_OMM_VERS = 2.0
CREATION_DATE  = 
ORIGINATOR     = 

OBJECT_NAME    = STARLINK-36206
OBJECT_ID      = 2025-286F
CENTER_NAME    = EARTH
REF_FRAME      = TEME
TIME_SYSTEM    = UTC
MEAN_ELEMENT_THEORY = SGP/SGP4

EPOCH          = 2025-12-18T06:00:02.999808
MEAN_MOTION    = 15.83645193
ECCENTRICITY   = .00008033
INCLINATION    = 53.1564
RA_OF_ASC_NODE = 22.7325
ARG_OF_PERICENTER = 86.5561
MEAN_ANOMALY   = 286.2067

EPHEMERIS_TYPE = 0
CLASSIFICATION_TYPE = U
NORAD_CAT_ID   = 66930
ELEMENT_SET_NO = 999
REV_AT_EPOCH   = 287
BSTAR          = -.68038031E-2
MEAN_MOTION_DOT = -.1341271E-1
MEAN_MOTION_DDOT = 0

CCSDS_OMM_VERS = 2.0
CREATION_DATE  = 
ORIGINATOR     = 

OBJECT_NAME    = STARLINK-36130
OBJECT_ID      = 2025-286G
CENTER_NAME    = EARTH
REF_FRAME      = TEME
TIME_SYSTEM    = UTC
MEAN_ELEMENT_THEORY = SGP/SGP4

EPOCH          = 2025-12-18T06:00:02.999808
MEAN_MOTION    = 15.83646638
ECCENTRICITY   = .00007151
INCLINATION    = 53.1563
RA_OF_ASC_NODE = 22.7278
ARG_OF_PERICENTER = 78.5279
MEAN_ANOMALY   = 296.5225

EPHEMERIS_TYPE = 0
CLASSIFICATION_TYPE = U
NORAD_CAT_ID   = 66931
ELEMENT_SET_NO = 999
REV_AT_EPOCH   = 287
BSTAR          = -.68382583E-2
MEAN_MOTION_DOT = -.1347233E-1
MEAN_MOTION_DDOT = 0

CCSDS_OMM_VERS = 2.0
CREATION_DATE  = 
ORIGINATOR     = 

OBJECT_NAME    = STARLINK-36177
OBJECT_ID      = 2025-286H
CENTER_NAME    = EARTH
REF_FRAME      = TEME
TIME_SYSTEM    = UTC
MEAN_ELEMENT_THEORY = SGP/SGP4

EPOCH          = 2025-12-18T06:00:02.999808
MEAN_MOTION    = 15.83650204
ECCENTRICITY   = .00007758
INCLINATION    = 53.1560
RA_OF_ASC_NODE = 22.7231
ARG_OF_PERICENTER = 77.2232
MEAN_ANOMALY   = 300.0708

EPHEMERIS_TYPE = 0
CLASSIFICATION_TYPE = U
NORAD_CAT_ID   = 66932
ELEMENT_SET_NO = 999
REV_AT_EPOCH   = 287
BSTAR          = -.68894337E-2
MEAN_MOTION_DOT = -.1356277E-1
MEAN_MOTION_DDOT = 0

CCSDS_OMM_VERS = 2.0
CREATION_DATE  = 
ORIGINATOR     = 

OBJECT_NAME    = STARLINK-36157
OBJECT_ID      = 2025-286J
CENTER_NAME    = EARTH
REF_FRAME      = TEME
TIME_SYSTEM    = UTC
MEAN_ELEMENT_THEORY = SGP/SGP4

EPOCH          = 2025-12-18T06:00:02.999808
MEAN_MOTION    = 15.83656486
ECCENTRICITY   = .00007044
INCLINATION    = 53.1563
RA_OF_ASC_NODE = 22.7185
ARG_OF_PERICENTER = 85.9689
MEAN_ANOMALY   = 293.5342

EPHEMERIS_TYPE = 0
CLASSIFICATION_TYPE = U
NORAD_CAT_ID   = 66933
ELEMENT_SET_NO = 999
REV_AT_EPOCH   = 287
BSTAR          = -.69336645E-2
MEAN_MOTION_DOT = -.1364182E-1
MEAN_MOTION_DDOT = 0

